{
  "type": "FeatureCollection",
  "features": [
    {
      "type": "Feature",
      "properties": {
        "norad_id": 34079,
        "name": "IRIDIUM 33 DEB",
        "group": "iridium-33-debris",
        "lat": -73.81625861863596,
        "lon": -157.34983007709704,
        "alt_km": 628.3562893629933,
        "timestamp": "2025-12-09T16:56:36.959138+00:00",
        "meta_object_name": "IRIDIUM 33 DEB",
        "meta_object_id": "1997-051CN",
        "meta_epoch": "2025-12-09T03:09:08.419680",
        "meta_mean_motion": 14.83376544,
        "meta_eccentricity": 0.0006064,
        "meta_inclination": 86.3775,
        "meta_ra_of_asc_node": 10.3028,
        "meta_arg_of_pericenter": 19.2898,
        "meta_mean_anomaly": 48.3139,
        "meta_ephemeris_type": 0,
        "meta_classification_type": "U",
        "meta_norad_cat_id": 34079,
        "meta_element_set_no": 999,
        "meta_rev_at_epoch": 88924,
        "meta_bstar": 0.0018399055,
        "meta_mean_motion_dot": 0.0001513,
        "meta_mean_motion_ddot": 0,
        "tle_line1": "1 34079U 97051CN  25343.13134745  .00015130  00000+0  18399-2 0  9991",
        "tle_line2": "2 34079  86.3775  10.3028 0006064  19.2898  48.3139 14.83376544889242"
      },
      "geometry": {
        "type": "Point",
        "coordinates": [
          -157.34983007709704,
          -73.81625861863596
        ]
      }
    },
    {
      "type": "Feature",
      "properties": {
        "norad_id": 34088,
        "name": "IRIDIUM 33 DEB",
        "group": "iridium-33-debris",
        "lat": -79.85776689109633,
        "lon": -127.18340221252443,
        "alt_km": 600.6846239875213,
        "timestamp": "2025-12-09T16:56:36.959148+00:00",
        "meta_object_name": "IRIDIUM 33 DEB",
        "meta_object_id": "1997-051CX",
        "meta_epoch": "2025-12-09T11:14:20.281056",
        "meta_mean_motion": 14.91127801,
        "meta_eccentricity": 0.0005477,
        "meta_inclination": 86.3845,
        "meta_ra_of_asc_node": 32.2268,
        "meta_arg_of_pericenter": 188.4748,
        "meta_mean_anomaly": 236.8538,
        "meta_ephemeris_type": 0,
        "meta_classification_type": "U",
        "meta_norad_cat_id": 34088,
        "meta_element_set_no": 999,
        "meta_rev_at_epoch": 88693,
        "meta_bstar": 0.0032695,
        "meta_mean_motion_dot": 0.0003256,
        "meta_mean_motion_ddot": 0,
        "tle_line1": "1 34088U 97051CX  25343.46829029  .00032560  00000+0  32695-2 0  9994",
        "tle_line2": "2 34088  86.3845  32.2268 0005477 188.4748 236.8538 14.91127801886938"
      },
      "geometry": {
        "type": "Point",
        "coordinates": [
          -127.18340221252443,
          -79.85776689109633
        ]
      }
    },
    {
      "type": "Feature",
      "properties": {
        "norad_id": 34091,
        "name": "IRIDIUM 33 DEB",
        "group": "iridium-33-debris",
        "lat": -10.691558846675056,
        "lon": -111.08511299658929,
        "alt_km": 638.4557594898642,
        "timestamp": "2025-12-09T16:56:36.959159+00:00",
        "meta_object_name": "IRIDIUM 33 DEB",
        "meta_object_id": "1997-051DA",
        "meta_epoch": "2025-12-09T06:21:21.737088",
        "meta_mean_motion": 14.81387493,
        "meta_eccentricity": 0.0033239,
        "meta_inclination": 86.3413,
        "meta_ra_of_asc_node": 68.4246,
        "meta_arg_of_pericenter": 305.7588,
        "meta_mean_anomaly": 54.0544,
        "meta_ephemeris_type": 0,
        "meta_classification_type": "U",
        "meta_norad_cat_id": 34091,
        "meta_element_set_no": 999,
        "meta_rev_at_epoch": 87815,
        "meta_bstar": 0.0066531,
        "meta_mean_motion_dot": 0.00052856,
        "meta_mean_motion_ddot": 0,
        "tle_line1": "1 34091U 97051DA  25343.26483492  .00052856  00000+0  66531-2 0  9992",
        "tle_line2": "2 34091  86.3413  68.4246 0033239 305.7588  54.0544 14.81387493878159"
      },
      "geometry": {
        "type": "Point",
        "coordinates": [
          -111.08511299658929,
          -10.691558846675056
        ]
      }
    },
    {
      "type": "Feature",
      "properties": {
        "norad_id": 34097,
        "name": "IRIDIUM 33 DEB",
        "group": "iridium-33-debris",
        "lat": -49.81718438725912,
        "lon": -172.73992076077562,
        "alt_km": 829.6463824285429,
        "timestamp": "2025-12-09T16:56:36.959169+00:00",
        "meta_object_name": "IRIDIUM 33 DEB",
        "meta_object_id": "1997-051DG",
        "meta_epoch": "2025-12-09T02:28:58.444608",
        "meta_mean_motion": 14.34730397,
        "meta_eccentricity": 0.00830075,
        "meta_inclination": 86.2001,
        "meta_ra_of_asc_node": 3.0124,
        "meta_arg_of_pericenter": 14.0258,
        "meta_mean_anomaly": 346.3214,
        "meta_ephemeris_type": 0,
        "meta_classification_type": "U",
        "meta_norad_cat_id": 34097,
        "meta_element_set_no": 999,
        "meta_rev_at_epoch": 87067,
        "meta_bstar": 0.0016398077,
        "meta_mean_motion_dot": 4.847e-05,
        "meta_mean_motion_ddot": 0,
        "tle_line1": "1 34097U 97051DG  25343.10345422  .00004847  00000+0  16398-2 0  9994",
        "tle_line2": "2 34097  86.2001   3.0124 0083007  14.0258 346.3214 14.34730397870672"
      },
      "geometry": {
        "type": "Point",
        "coordinates": [
          -172.73992076077562,
          -49.81718438725912
        ]
      }
    },
    {
      "type": "Feature",
      "properties": {
        "norad_id": 34145,
        "name": "IRIDIUM 33 DEB",
        "group": "iridium-33-debris",
        "lat": 57.09110004740226,
        "lon": -20.246466788246714,
        "alt_km": 718.0302816177445,
        "timestamp": "2025-12-09T16:56:36.959179+00:00",
        "meta_object_name": "IRIDIUM 33 DEB",
        "meta_object_id": "1997-051DY",
        "meta_epoch": "2025-12-09T10:01:09.026112",
        "meta_mean_motion": 14.42251473,
        "meta_eccentricity": 0.0055616,
        "meta_inclination": 86.2119,
        "meta_ra_of_asc_node": 334.0058,
        "meta_arg_of_pericenter": 104.3525,
        "meta_mean_anomaly": 256.3858,
        "meta_ephemeris_type": 0,
        "meta_classification_type": "U",
        "meta_norad_cat_id": 34145,
        "meta_element_set_no": 999,
        "meta_rev_at_epoch": 87590,
        "meta_bstar": 0.0016534,
        "meta_mean_motion_dot": 5.573e-05,
        "meta_mean_motion_ddot": 0,
        "tle_line1": "1 34145U 97051DY  25343.41746558  .00005573  00000+0  16534-2 0  9996",
        "tle_line2": "2 34145  86.2119 334.0058 0055616 104.3525 256.3858 14.42251473875901"
      },
      "geometry": {
        "type": "Point",
        "coordinates": [
          -20.246466788246714,
          57.09110004740226
        ]
      }
    },
    {
      "type": "Feature",
      "properties": {
        "norad_id": 34146,
        "name": "IRIDIUM 33 DEB",
        "group": "iridium-33-debris",
        "lat": -18.06998291570309,
        "lon": -10.074655479789488,
        "alt_km": 739.9207006911656,
        "timestamp": "2025-12-09T16:56:36.959190+00:00",
        "meta_object_name": "IRIDIUM 33 DEB",
        "meta_object_id": "1997-051DZ",
        "meta_epoch": "2025-12-09T11:08:14.289792",
        "meta_mean_motion": 14.49013185,
        "meta_eccentricity": 0.002523,
        "meta_inclination": 86.2836,
        "meta_ra_of_asc_node": 351.2473,
        "meta_arg_of_pericenter": 233.2613,
        "meta_mean_anomaly": 287.271,
        "meta_ephemeris_type": 0,
        "meta_classification_type": "U",
        "meta_norad_cat_id": 34146,
        "meta_element_set_no": 999,
        "meta_rev_at_epoch": 88059,
        "meta_bstar": 0.0014596,
        "meta_mean_motion_dot": 5.577e-05,
        "meta_mean_motion_ddot": 0,
        "tle_line1": "1 34146U 97051DZ  25343.46405428  .00005577  00000+0  14596-2 0  9990",
        "tle_line2": "2 34146  86.2836 351.2473 0025230 233.2613 287.2710 14.49013185880593"
      },
      "geometry": {
        "type": "Point",
        "coordinates": [
          -10.074655479789488,
          -18.06998291570309
        ]
      }
    },
    {
      "type": "Feature",
      "properties": {
        "norad_id": 34159,
        "name": "IRIDIUM 33 DEB",
        "group": "iridium-33-debris",
        "lat": 8.534566287912215,
        "lon": -131.0136507666264,
        "alt_km": 776.6161354383803,
        "timestamp": "2025-12-09T16:56:36.959200+00:00",
        "meta_object_name": "IRIDIUM 33 DEB",
        "meta_object_id": "1997-051EN",
        "meta_epoch": "2025-12-09T11:08:19.876416",
        "meta_mean_motion": 14.38481589,
        "meta_eccentricity": 0.0026019,
        "meta_inclination": 86.3512,
        "meta_ra_of_asc_node": 49.6381,
        "meta_arg_of_pericenter": 299.3845,
        "meta_mean_anomaly": 60.4755,
        "meta_ephemeris_type": 0,
        "meta_classification_type": "U",
        "meta_norad_cat_id": 34159,
        "meta_element_set_no": 999,
        "meta_rev_at_epoch": 87912,
        "meta_bstar": 0.00068608,
        "meta_mean_motion_dot": 2.121e-05,
        "meta_mean_motion_ddot": 0,
        "tle_line1": "1 34159U 97051EN  25343.46411894  .00002121  00000+0  68608-3 0  9994",
        "tle_line2": "2 34159  86.3512  49.6381 0026019 299.3845  60.4755 14.38481589879123"
      },
      "geometry": {
        "type": "Point",
        "coordinates": [
          -131.0136507666264,
          8.534566287912215
        ]
      }
    }
  ]
}